{
  "links" : {
    "next" : "https://api.nasa.gov/neo/rest/v1/feed?start_date=1998-04-16&end_date=1998-04-16&detailed=true&api_key=t0TVs3DtDT2H8Oy2Zy8m2eVrNsAVKAexjcZXUckd",
    "prev" : "https://api.nasa.gov/neo/rest/v1/feed?start_date=1998-04-14&end_date=1998-04-14&detailed=true&api_key=t0TVs3DtDT2H8Oy2Zy8m2eVrNsAVKAexjcZXUckd",
    "self" : "https://api.nasa.gov/neo/rest/v1/feed?start_date=1998-04-15&end_date=1998-04-15&detailed=true&api_key=t0TVs3DtDT2H8Oy2Zy8m2eVrNsAVKAexjcZXUckd"
  },
  "element_count" : 7,
  "near_earth_objects" : {
    "1998-04-15" : [ {
      "links" : {
        "self" : "https://api.nasa.gov/neo/rest/v1/neo/2277810?api_key=t0TVs3DtDT2H8Oy2Zy8m2eVrNsAVKAexjcZXUckd"
      },
      "neo_reference_id" : "2277810",
      "name" : "277810 (2006 FV35)",
      "nasa_jpl_url" : "http://ssd.jpl.nasa.gov/sbdb.cgi?sstr=2277810",
      "absolute_magnitude_h" : 21.8,
      "estimated_diameter" : {
        "kilometers" : {
          "estimated_diameter_min" : 0.1160259082,
          "estimated_diameter_max" : 0.2594418179
        },
        "meters" : {
          "estimated_diameter_min" : 116.0259082094,
          "estimated_diameter_max" : 259.4418179074
        },
        "miles" : {
          "estimated_diameter_min" : 0.0720951346,
          "estimated_diameter_max" : 0.1612096218
        },
        "feet" : {
          "estimated_diameter_min" : 380.6624406898,
          "estimated_diameter_max" : 851.1870938635
        }
      },
      "is_potentially_hazardous_asteroid" : false,
      "close_approach_data" : [ {
        "close_approach_date" : "1998-04-15",
        "epoch_date_close_approach" : 892623600000,
        "relative_velocity" : {
          "kilometers_per_second" : "9.1651082798",
          "kilometers_per_hour" : "32994.3898073088",
          "miles_per_hour" : "20501.4307111025"
        },
        "miss_distance" : {
          "astronomical" : "0.3061617072",
          "lunar" : "119.0969009399",
          "kilometers" : "45801140",
          "miles" : "28459508"
        },
        "orbiting_body" : "Earth"
      } ],
      "orbital_data" : {
        "orbit_id" : "51",
        "orbit_determination_date" : "2017-04-06 09:24:24",
        "orbit_uncertainty" : "1",
        "minimum_orbit_intersection" : ".104736",
        "jupiter_tisserand_invariant" : "6.003",
        "epoch_osculation" : "2458000.5",
        "eccentricity" : ".3775352983208624",
        "semi_major_axis" : "1.001342942840337",
        "inclination" : "7.104126563177385",
        "ascending_node_longitude" : "179.5057827726986",
        "orbital_period" : "365.9929240029879",
        "perihelion_distance" : ".6233006361936202",
        "perihelion_argument" : "170.8521652770838",
        "aphelion_distance" : "1.379385249487054",
        "perihelion_time" : "2457994.548482506686",
        "mean_anomaly" : "5.854064811306019",
        "mean_motion" : ".983625574130119",
        "equinox" : "J2000"
      }
    }, {
      "links" : {
        "self" : "https://api.nasa.gov/neo/rest/v1/neo/2395289?api_key=t0TVs3DtDT2H8Oy2Zy8m2eVrNsAVKAexjcZXUckd"
      },
      "neo_reference_id" : "2395289",
      "name" : "395289 (2011 BJ2)",
      "nasa_jpl_url" : "http://ssd.jpl.nasa.gov/sbdb.cgi?sstr=2395289",
      "absolute_magnitude_h" : 18.3,
      "estimated_diameter" : {
        "kilometers" : {
          "estimated_diameter_min" : 0.5815070396,
          "estimated_diameter_max" : 1.30028927
        },
        "meters" : {
          "estimated_diameter_min" : 581.5070396458,
          "estimated_diameter_max" : 1300.2892700427
        },
        "miles" : {
          "estimated_diameter_min" : 0.3613316107,
          "estimated_diameter_max" : 0.807962044
        },
        "feet" : {
          "estimated_diameter_min" : 1907.8315559515,
          "estimated_diameter_max" : 4266.0410487267
        }
      },
      "is_potentially_hazardous_asteroid" : false,
      "close_approach_data" : [ {
        "close_approach_date" : "1998-04-15",
        "epoch_date_close_approach" : 892623600000,
        "relative_velocity" : {
          "kilometers_per_second" : "23.6312780804",
          "kilometers_per_hour" : "85072.6010893072",
          "miles_per_hour" : "52860.8059379642"
        },
        "miss_distance" : {
          "astronomical" : "0.4890716526",
          "lunar" : "190.2488861084",
          "kilometers" : "73164080",
          "miles" : "45462052"
        },
        "orbiting_body" : "Earth"
      } ],
      "orbital_data" : {
        "orbit_id" : "48",
        "orbit_determination_date" : "2017-05-14 06:18:27",
        "orbit_uncertainty" : "0",
        "minimum_orbit_intersection" : ".0938502",
        "jupiter_tisserand_invariant" : "4.634",
        "epoch_osculation" : "2458000.5",
        "eccentricity" : ".3472492763451782",
        "semi_major_axis" : "1.290400870088459",
        "inclination" : "49.90123941966606",
        "ascending_node_longitude" : "34.01261060053654",
        "orbital_period" : "535.4086677220515",
        "perihelion_distance" : ".8423101017550536",
        "perihelion_argument" : "84.12432760940136",
        "aphelion_distance" : "1.738491638421865",
        "perihelion_time" : "2457775.861082671893",
        "mean_anomaly" : "151.0435207972777",
        "mean_motion" : ".6723835860402767",
        "equinox" : "J2000"
      }
    }, {
      "links" : {
        "self" : "https://api.nasa.gov/neo/rest/v1/neo/3306214?api_key=t0TVs3DtDT2H8Oy2Zy8m2eVrNsAVKAexjcZXUckd"
      },
      "neo_reference_id" : "3306214",
      "name" : "(2005 XB1)",
      "nasa_jpl_url" : "http://ssd.jpl.nasa.gov/sbdb.cgi?sstr=3306214",
      "absolute_magnitude_h" : 22.0,
      "estimated_diameter" : {
        "kilometers" : {
          "estimated_diameter_min" : 0.1058168859,
          "estimated_diameter_max" : 0.2366137501
        },
        "meters" : {
          "estimated_diameter_min" : 105.8168859331,
          "estimated_diameter_max" : 236.6137501138
        },
        "miles" : {
          "estimated_diameter_min" : 0.0657515442,
          "estimated_diameter_max" : 0.1470249225
        },
        "feet" : {
          "estimated_diameter_min" : 347.1682720448,
          "estimated_diameter_max" : 776.2918559233
        }
      },
      "is_potentially_hazardous_asteroid" : false,
      "close_approach_data" : [ {
        "close_approach_date" : "1998-04-15",
        "epoch_date_close_approach" : 892623600000,
        "relative_velocity" : {
          "kilometers_per_second" : "16.6131461151",
          "kilometers_per_hour" : "59807.3260144928",
          "miles_per_hour" : "37161.9465449497"
        },
        "miss_distance" : {
          "astronomical" : "0.1465245709",
          "lunar" : "56.9980621338",
          "kilometers" : "21919766",
          "miles" : "13620311"
        },
        "orbiting_body" : "Earth"
      } ],
      "orbital_data" : {
        "orbit_id" : "19",
        "orbit_determination_date" : "2017-04-06 09:09:42",
        "orbit_uncertainty" : "0",
        "minimum_orbit_intersection" : ".0707555",
        "jupiter_tisserand_invariant" : "5.437",
        "epoch_osculation" : "2458000.5",
        "eccentricity" : ".4186657960904692",
        "semi_major_axis" : "1.131065345402811",
        "inclination" : "8.70796918416139",
        "ascending_node_longitude" : "73.36033519705404",
        "orbital_period" : "439.3695661351827",
        "perihelion_distance" : ".6575269721394015",
        "perihelion_argument" : "232.8638961842283",
        "aphelion_distance" : "1.60460371866622",
        "perihelion_time" : "2458007.307682492774",
        "mean_anomaly" : "354.4220859014968",
        "mean_motion" : ".8193557946369853",
        "equinox" : "J2000"
      }
    } ]
  }
}